[{"OBJECT_NAME":"USA 283","OBJECT_ID":"2018-036A","EPOCH":"2022-08-15T02:18:20.270016","MEAN_MOTION":1.00269682,"ECCENTRICITY":2.48e-5,"INCLINATION":0.0081,"RA_OF_ASC_NODE":96.6255,"ARG_OF_PERICENTER":53.1652,"MEAN_ANOMALY":342.3508,"EPHEMERIS_TYPE":0,"CLASSIFICATION_TYPE":"U","NORAD_CAT_ID":43339,"ELEMENT_SET_NO":999,"REV_AT_EPOCH":468,"BSTAR":0,"MEAN_MOTION_DOT":-3.34e-6,"MEAN_MOTION_DDOT":0},{"OBJECT_NAME":"COSMOS 2526","OBJECT_ID":"2018-037A","EPOCH":"2022-08-18T17:50:42.540288","MEAN_MOTION":1.00271461,"ECCENTRICITY":3.13e-5,"INCLINATION":0.0233,"RA_OF_ASC_NODE":109.8332,"ARG_OF_PERICENTER":90.5412,"MEAN_ANOMALY":162.4517,"EPHEMERIS_TYPE":0,"CLASSIFICATION_TYPE":"U","NORAD_CAT_ID":43432,"ELEMENT_SET_NO":999,"REV_AT_EPOCH":1594,"BSTAR":0,"MEAN_MOTION_DOT":-3.52e-6,"MEAN_MOTION_DDOT":0},{"OBJECT_NAME":"APSTAR 6C","OBJECT_ID":"2018-041A","EPOCH":"2022-08-19T08:08:17.707776","MEAN_MOTION":1.00267773,"ECCENTRICITY":0.0002347,"INCLINATION":0.036,"RA_OF_ASC_NODE":258.9972,"ARG_OF_PERICENTER":278.497,"MEAN_ANOMALY":46.1871,"EPHEMERIS_TYPE":0,"CLASSIFICATION_TYPE":"U","NORAD_CAT_ID":43450,"ELEMENT_SET_NO":999,"REV_AT_EPOCH":1582,"BSTAR":0,"MEAN_MOTION_DOT":-3.24e-6,"MEAN_MOTION_DDOT":0},{"OBJECT_NAME":"BANGABANDHUSAT-1","OBJECT_ID":"2018-044A","EPOCH":"2022-08-18T21:07:09.711264","MEAN_MOTION":1.00273298,"ECCENTRICITY":0.000213,"INCLINATION":0.0148,"RA_OF_ASC_NODE":138.5491,"ARG_OF_PERICENTER":28.6055,"MEAN_ANOMALY":235.9369,"EPHEMERIS_TYPE":0,"CLASSIFICATION_TYPE":"U","NORAD_CAT_ID":43463,"ELEMENT_SET_NO":999,"REV_AT_EPOCH":1568,"BSTAR":0,"MEAN_MOTION_DOT":-3.69e-6,"MEAN_MOTION_DDOT":0},{"OBJECT_NAME":"SES-12","OBJECT_ID":"2018-049A","EPOCH":"2022-08-19T01:05:42.545184","MEAN_MOTION":1.0027148,"ECCENTRICITY":0.0001422,"INCLINATION":0.0151,"RA_OF_ASC_NODE":65.462,"ARG_OF_PERICENTER":172.3701,"MEAN_ANOMALY":200.9562,"EPHEMERIS_TYPE":0,"CLASSIFICATION_TYPE":"U","NORAD_CAT_ID":43488,"ELEMENT_SET_NO":999,"REV_AT_EPOCH":1539,"BSTAR":0,"MEAN_MOTION_DOT":-2.76e-6,"MEAN_MOTION_DDOT":0},{"OBJECT_NAME":"FENGYUN 2H","OBJECT_ID":"2018-050A","EPOCH":"2022-08-19T02:05:33.715392","MEAN_MOTION":1.00268607,"ECCENTRICITY":0.0004234,"INCLINATION":1.3029,"RA_OF_ASC_NODE":95.9904,"ARG_OF_PERICENTER":49.2472,"MEAN_ANOMALY":292.7057,"EPHEMERIS_TYPE":0,"CLASSIFICATION_TYPE":"U","NORAD_CAT_ID":43491,"ELEMENT_SET_NO":999,"REV_AT_EPOCH":1549,"BSTAR":0,"MEAN_MOTION_DOT":-1.34e-6,"MEAN_MOTION_DDOT":0},{"OBJECT_NAME":"BEIDOU IGSO-7","OBJECT_ID":"2018-057A","EPOCH":"2022-08-18T12:54:16.384896","MEAN_MOTION":1.00291771,"ECCENTRICITY":0.0052699,"INCLINATION":55.0899,"RA_OF_ASC_NODE":175.1821,"ARG_OF_PERICENTER":228.9795,"MEAN_ANOMALY":228.9832,"EPHEMERIS_TYPE":0,"CLASSIFICATION_TYPE":"U","NORAD_CAT_ID":43539,"ELEMENT_SET_NO":999,"REV_AT_EPOCH":1513,"BSTAR":0,"MEAN_MOTION_DOT":-1.25e-6,"MEAN_MOTION_DDOT":0},{"OBJECT_NAME":"TELSTAR 19V","OBJECT_ID":"2018-059A","EPOCH":"2022-08-19T01:24:52.663104","MEAN_MOTION":1.00271046,"ECCENTRICITY":0.0003255,"INCLINATION":0.0085,"RA_OF_ASC_NODE":150.7451,"ARG_OF_PERICENTER":358.5964,"MEAN_ANOMALY":136.2513,"EPHEMERIS_TYPE":0,"CLASSIFICATION_TYPE":"U","NORAD_CAT_ID":43562,"ELEMENT_SET_NO":999,"REV_AT_EPOCH":1514,"BSTAR":0,"MEAN_MOTION_DOT":-2.86e-6,"MEAN_MOTION_DDOT":0},{"OBJECT_NAME":"TELKOM 4 (MERAH PUTIH)","OBJECT_ID":"2018-064A","EPOCH":"2022-08-18T23:39:54.713952","MEAN_MOTION":1.002713,"ECCENTRICITY":0.0001253,"INCLINATION":0.0147,"RA_OF_ASC_NODE":106.594,"ARG_OF_PERICENTER":66.5857,"MEAN_ANOMALY":257.1101,"EPHEMERIS_TYPE":0,"CLASSIFICATION_TYPE":"U","NORAD_CAT_ID":43587,"ELEMENT_SET_NO":999,"REV_AT_EPOCH":1484,"BSTAR":0,"MEAN_MOTION_DOT":-3.5e-6,"MEAN_MOTION_DDOT":0},{"OBJECT_NAME":"TELSTAR 18V (APSTAR 5C)","OBJECT_ID":"2018-069A","EPOCH":"2022-08-18T22:55:55.532640","MEAN_MOTION":1.00271888,"ECCENTRICITY":0.0002015,"INCLINATION":0.0155,"RA_OF_ASC_NODE":119.548,"ARG_OF_PERICENTER":34.0668,"MEAN_ANOMALY":295.6453,"EPHEMERIS_TYPE":0,"CLASSIFICATION_TYPE":"U","NORAD_CAT_ID":43611,"ELEMENT_SET_NO":999,"REV_AT_EPOCH":1459,"BSTAR":0,"MEAN_MOTION_DOT":-3.0e-6,"MEAN_MOTION_DDOT":0},{"OBJECT_NAME":"AZERSPACE 2 (IS-38)","OBJECT_ID":"2018-074A","EPOCH":"2022-08-18T18:42:53.385984","MEAN_MOTION":1.00273418,"ECCENTRICITY":0.0001496,"INCLINATION":0.0157,"RA_OF_ASC_NODE":108.1734,"ARG_OF_PERICENTER":58.4898,"MEAN_ANOMALY":126.2572,"EPHEMERIS_TYPE":0,"CLASSIFICATION_TYPE":"U","NORAD_CAT_ID":43632,"ELEMENT_SET_NO":999,"REV_AT_EPOCH":1442,"BSTAR":0,"MEAN_MOTION_DOT":1.29e-6,"MEAN_MOTION_DDOT":0},{"OBJECT_NAME":"HORIZONS-3E","OBJECT_ID":"2018-074B","EPOCH":"2022-08-18T21:21:28.599840","MEAN_MOTION":1.00273048,"ECCENTRICITY":0.0002019,"INCLINATION":0.0052,"RA_OF_ASC_NODE":227.4539,"ARG_OF_PERICENTER":73.6571,"MEAN_ANOMALY":155.4629,"EPHEMERIS_TYPE":0,"CLASSIFICATION_TYPE":"U","NORAD_CAT_ID":43633,"ELEMENT_SET_NO":999,"REV_AT_EPOCH":1430,"BSTAR":0,"MEAN_MOTION_DOT":-3.7e-7,"MEAN_MOTION_DDOT":0},{"OBJECT_NAME":"AEHF-4 (USA 288)","OBJECT_ID":"2018-079A","EPOCH":"2022-08-18T20:13:32.645280","MEAN_MOTION":1.0027283,"ECCENTRICITY":0.0004175,"INCLINATION":2.445,"RA_OF_ASC_NODE":316.7349,"ARG_OF_PERICENTER":190.4052,"MEAN_ANOMALY":55.9291,"EPHEMERIS_TYPE":0,"CLASSIFICATION_TYPE":"U","NORAD_CAT_ID":43651,"ELEMENT_SET_NO":999,"REV_AT_EPOCH":1427,"BSTAR":0,"MEAN_MOTION_DOT":-2.79e-6,"MEAN_MOTION_DDOT":0},{"OBJECT_NAME":"BEIDOU-3 G1","OBJECT_ID":"2018-085A","EPOCH":"2022-08-18T21:13:11.347968","MEAN_MOTION":1.00272479,"ECCENTRICITY":0.0004488,"INCLINATION":0.9561,"RA_OF_ASC_NODE":156.1104,"ARG_OF_PERICENTER":16.3099,"MEAN_ANOMALY":253.1585,"EPHEMERIS_TYPE":0,"CLASSIFICATION_TYPE":"U","NORAD_CAT_ID":43683,"ELEMENT_SET_NO":999,"REV_AT_EPOCH":1403,"BSTAR":0,"MEAN_MOTION_DOT":-2.85e-6,"MEAN_MOTION_DDOT":0},{"OBJECT_NAME":"GSAT-29","OBJECT_ID":"2018-089A","EPOCH":"2022-08-16T20:20:58.319808","MEAN_MOTION":1.00272656,"ECCENTRICITY":0.000235,"INCLINATION":0.0778,"RA_OF_ASC_NODE":102.0563,"ARG_OF_PERICENTER":41.1534,"MEAN_ANOMALY":182.2833,"EPHEMERIS_TYPE":0,"CLASSIFICATION_TYPE":"U","NORAD_CAT_ID":43698,"ELEMENT_SET_NO":999,"REV_AT_EPOCH":1374,"BSTAR":0,"MEAN_MOTION_DOT":7.3e-7,"MEAN_MOTION_DDOT":0},{"OBJECT_NAME":"ES'HAIL 2","OBJECT_ID":"2018-090A","EPOCH":"2022-08-18T20:40:17.410368","MEAN_MOTION":1.00273027,"ECCENTRICITY":0.0002049,"INCLINATION":0.0125,"RA_OF_ASC_NODE":108.9879,"ARG_OF_PERICENTER":83.3768,"MEAN_ANOMALY":110.6545,"EPHEMERIS_TYPE":0,"CLASSIFICATION_TYPE":"U","NORAD_CAT_ID":43700,"ELEMENT_SET_NO":999,"REV_AT_EPOCH":1365,"BSTAR":0,"MEAN_MOTION_DOT":1.37e-6,"MEAN_MOTION_DDOT":0},{"OBJECT_NAME":"GEO-KOMPSAT-2A","OBJECT_ID":"2018-100A","EPOCH":"2022-08-15T10:08:41.452800","MEAN_MOTION":1.00271264,"ECCENTRICITY":0.0001828,"INCLINATION":0.0119,"RA_OF_ASC_NODE":113.1225,"ARG_OF_PERICENTER":2.1497,"MEAN_ANOMALY":128.9535,"EPHEMERIS_TYPE":0,"CLASSIFICATION_TYPE":"U","NORAD_CAT_ID":43823,"ELEMENT_SET_NO":999,"REV_AT_EPOCH":1356,"BSTAR":0,"MEAN_MOTION_DOT":-3.6e-6,"MEAN_MOTION_DDOT":0}]