USA 283                 
1 43339U 18036A   22227.09606794 -.00000334  00000+0  00000+0 0  9995
2 43339   0.0081  96.6255 0000248  53.1652 342.3508  1.00269682  4689
COSMOS 2526             
1 43432U 18037A   22230.74354792 -.00000352  00000+0  00000+0 0  9994
2 43432   0.0233 109.8332 0000313  90.5412 162.4517  1.00271461 15947
APSTAR 6C               
1 43450U 18041A   22231.33909384 -.00000324  00000+0  00000+0 0  9997
2 43450   0.0360 258.9972 0002347 278.4970  46.1871  1.00267773 15828
BANGABANDHUSAT-1        
1 43463U 18044A   22230.87997351 -.00000369  00000+0  00000+0 0  9992
2 43463   0.0148 138.5491 0002130  28.6055 235.9369  1.00273298 15687
SES-12                  
1 43488U 18049A   22231.04563131 -.00000276  00000+0  00000+0 0  9996
2 43488   0.0151  65.4620 0001422 172.3701 200.9562  1.00271480 15394
FENGYUN 2H              
1 43491U 18050A   22231.08719578 -.00000134  00000+0  00000+0 0  9997
2 43491   1.3029  95.9904 0004234  49.2472 292.7057  1.00268607 15496
BEIDOU IGSO-7           
1 43539U 18057A   22230.53768964 -.00000125  00000+0  00000+0 0  9999
2 43539  55.0899 175.1821 0052699 228.9795 228.9832  1.00291771 15132
TELSTAR 19V             
1 43562U 18059A   22231.05894286 -.00000286  00000+0  00000+0 0  9990
2 43562   0.0085 150.7451 0003255 358.5964 136.2513  1.00271046 15146
TELKOM 4 (MERAH PUTIH)  
1 43587U 18064A   22230.98604993 -.00000350  00000+0  00000+0 0  9990
2 43587   0.0147 106.5940 0001253  66.5857 257.1101  1.00271300 14842
TELSTAR 18V (APSTAR 5C) 
1 43611U 18069A   22230.95550385 -.00000300  00000+0  00000+0 0  9990
2 43611   0.0155 119.5480 0002015  34.0668 295.6453  1.00271888 14599
AZERSPACE 2 (IS-38)     
1 43632U 18074A   22230.77978456  .00000129  00000+0  00000+0 0  9990
2 43632   0.0157 108.1734 0001496  58.4898 126.2572  1.00273418 14421
HORIZONS-3E             
1 43633U 18074B   22230.88991435 -.00000037  00000+0  00000+0 0  9994
2 43633   0.0052 227.4539 0002019  73.6571 155.4629  1.00273048 14306
AEHF-4 (USA 288)        
1 43651U 18079A   22230.84273895 -.00000279  00000+0  00000+0 0  9996
2 43651   2.4450 316.7349 0004175 190.4052  55.9291  1.00272830 14275
BEIDOU-3 G1             
1 43683U 18085A   22230.88415912 -.00000285  00000+0  00000+0 0  9997
2 43683   0.9561 156.1104 0004488  16.3099 253.1585  1.00272479 14036
GSAT-29                 
1 43698U 18089A   22228.84789722  .00000073  00000+0  00000+0 0  9997
2 43698   0.0778 102.0563 0002350  41.1534 182.2833  1.00272656 13740
ES'HAIL 2               
1 43700U 18090A   22230.86131262  .00000137  00000+0  00000+0 0  9999
2 43700   0.0125 108.9879 0002049  83.3768 110.6545  1.00273027 13655
GEO-KOMPSAT-2A          
1 43823U 18100A   22227.42270200 -.00000360  00000+0  00000+0 0  9990
2 43823   0.0119 113.1225 0001828   2.1497 128.9535  1.00271264 13561
